FENGYUN 1C DEB          
1 29815U 99025DH  17345.93104369  .00000308  00000-0  70435-4 0  9999
2 29815  98.3401  30.0876 0226941 146.1970 215.3930 14.48132417574484
